{
  "type": "FeatureCollection",
  "features": [
    {
      "type": "Feature",
      "properties": {
        "norad_id": 48859,
        "name": "GPS BIII-5  (PRN 11)",
        "group": "gps-ops",
        "lat": 52.132829606726105,
        "lon": 43.31735085629328,
        "alt_km": 20238.20206461547,
        "timestamp": "2025-12-08T03:50:07.256454+00:00",
        "meta_object_name": "GPS BIII-5  (PRN 11)",
        "meta_object_id": "2021-054A",
        "meta_epoch": "2025-11-30T17:12:22.002912",
        "meta_mean_motion": 2.00553932,
        "meta_eccentricity": 0.0024653,
        "meta_inclination": 55.2606,
        "meta_ra_of_asc_node": 340.4377,
        "meta_arg_of_pericenter": 232.9477,
        "meta_mean_anomaly": 227.2059,
        "meta_ephemeris_type": 0,
        "meta_classification_type": "U",
        "meta_norad_cat_id": 48859,
        "meta_element_set_no": 999,
        "meta_rev_at_epoch": 3277,
        "meta_bstar": 0,
        "meta_mean_motion_dot": -5.5e-07,
        "meta_mean_motion_ddot": 0,
        "tle_line1": "1 48859U 21054A   25334.71692133 -.00000055  00000+0  00000+0 0  9994",
        "tle_line2": "2 48859  55.2606 340.4377 0024653 232.9477 227.2059  2.00553932 32777"
      },
      "geometry": {
        "type": "Point",
        "coordinates": [
          43.31735085629328,
          52.132829606726105
        ]
      }
    },
    {
      "type": "Feature",
      "properties": {
        "norad_id": 55268,
        "name": "GPS BIII-6  (PRN 28)",
        "group": "gps-ops",
        "lat": 47.23920630916092,
        "lon": -73.01232072369667,
        "alt_km": 20181.947791750074,
        "timestamp": "2025-12-08T03:50:07.256465+00:00",
        "meta_object_name": "GPS BIII-6  (PRN 28)",
        "meta_object_id": "2023-009A",
        "meta_epoch": "2025-12-07T05:54:14.393088",
        "meta_mean_motion": 2.00556057,
        "meta_eccentricity": 0.00036245,
        "meta_inclination": 55.1044,
        "meta_ra_of_asc_node": 156.061,
        "meta_arg_of_pericenter": 357.0717,
        "meta_mean_anomaly": 179.5009,
        "meta_ephemeris_type": 0,
        "meta_classification_type": "U",
        "meta_norad_cat_id": 55268,
        "meta_element_set_no": 999,
        "meta_rev_at_epoch": 2139,
        "meta_bstar": 0,
        "meta_mean_motion_dot": 5.8e-07,
        "meta_mean_motion_ddot": 0,
        "tle_line1": "1 55268U 23009A   25341.24599992  .00000058  00000+0  00000+0 0  9995",
        "tle_line2": "2 55268  55.1044 156.0610 0003624 357.0717 179.5009  2.00556057 21397"
      },
      "geometry": {
        "type": "Point",
        "coordinates": [
          -73.01232072369667,
          47.23920630916092
        ]
      }
    },
    {
      "type": "Feature",
      "properties": {
        "norad_id": 62339,
        "name": "GPS BIII-7  (PRN 01)",
        "group": "gps-ops",
        "lat": -11.064652162865086,
        "lon": 169.8178879952828,
        "alt_km": 20210.90230232067,
        "timestamp": "2025-12-08T03:50:07.256477+00:00",
        "meta_object_name": "GPS BIII-7  (PRN 01)",
        "meta_object_id": "2024-242A",
        "meta_epoch": "2025-12-07T03:32:57.244128",
        "meta_mean_motion": 2.00567416,
        "meta_eccentricity": 0.00118981,
        "meta_inclination": 54.925,
        "meta_ra_of_asc_node": 341.9665,
        "meta_arg_of_pericenter": 343.6843,
        "meta_mean_anomaly": 199.2403,
        "meta_ephemeris_type": 0,
        "meta_classification_type": "U",
        "meta_norad_cat_id": 62339,
        "meta_element_set_no": 999,
        "meta_rev_at_epoch": 740,
        "meta_bstar": 0,
        "meta_mean_motion_dot": -8.5e-07,
        "meta_mean_motion_ddot": 0,
        "tle_line1": "1 62339U 24242A   25341.14788477 -.00000085  00000+0  00000+0 0  9990",
        "tle_line2": "2 62339  54.9250 341.9665 0011898 343.6843 199.2403  2.00567416  7402"
      },
      "geometry": {
        "type": "Point",
        "coordinates": [
          169.8178879952828,
          -11.064652162865086
        ]
      }
    },
    {
      "type": "Feature",
      "properties": {
        "norad_id": 64202,
        "name": "GPS BIII-8  (PRN 21)",
        "group": "gps-ops",
        "lat": 18.88606591036965,
        "lon": 52.64678383551835,
        "alt_km": 20177.139469146474,
        "timestamp": "2025-12-08T03:50:07.256489+00:00",
        "meta_object_name": "GPS BIII-8  (PRN 21)",
        "meta_object_id": "2025-116A",
        "meta_epoch": "2025-12-07T02:40:40.917216",
        "meta_mean_motion": 2.00558359,
        "meta_eccentricity": 0.00051354,
        "meta_inclination": 55.1017,
        "meta_ra_of_asc_node": 38.8682,
        "meta_arg_of_pericenter": 307.3727,
        "meta_mean_anomaly": 39.0167,
        "meta_ephemeris_type": 0,
        "meta_classification_type": "U",
        "meta_norad_cat_id": 64202,
        "meta_element_set_no": 999,
        "meta_rev_at_epoch": 401,
        "meta_bstar": 0,
        "meta_mean_motion_dot": -7.4e-07,
        "meta_mean_motion_ddot": 0,
        "tle_line1": "1 64202U 25116A   25341.11158469 -.00000074  00000+0  00000+0 0  9999",
        "tle_line2": "2 64202  55.1017  38.8682 0005135 307.3727  39.0167  2.00558359  4011"
      },
      "geometry": {
        "type": "Point",
        "coordinates": [
          52.64678383551835,
          18.88606591036965
        ]
      }
    }
  ]
}